OBJECT_NAME,OBJECT_ID,EPOCH,MEAN_MOTION,ECCENTRICITY,INCLINATION,RA_OF_ASC_NODE,ARG_OF_PERICENTER,MEAN_ANOMALY,EPHEMERIS_TYPE,CLASSIFICATION_TYPE,NORAD_CAT_ID,ELEMENT_SET_NO,REV_AT_EPOCH,BSTAR,MEAN_MOTION_DOT,MEAN_MOTION_DDOT
FM-6,2013-058A,2026-07-20T17:42:21.340800,1.00270123,.00012558,0.0054,49.4768,129.9372,268.3240,0,U,39360,999,4640,0,-.16E-6,0
RADUGA-1M 3,2013-062A,2026-07-20T22:47:58.820640,1.00272319,.00019966,6.0422,71.9211,284.5731,319.1842,0,U,39375,999,4644,0,.149E-5,0
SES-8,2013-071A,2026-07-20T22:08:01.563648,1.00271709,.00028211,0.0625,261.0904,215.6961,248.9025,0,U,39460,999,4476,0,-.269E-5,0
INMARSAT 5-F1,2013-073A,2026-07-20T11:42:51.471072,1.00272746,.00000932,0.0162,64.7248,286.7459,185.1431,0,U,39476,999,4591,0,.26E-6,0
TKSAT-1 (TUPAC KATARI),2013-075A,2026-07-20T21:16:09.217056,1.00272908,.00026911,0.0118,162.5048,306.1498,61.8356,0,U,39481,999,4594,0,-.195E-5,0
EXPRESS-AM5,2013-077A,2026-07-21T04:21:38.575872,1.00271837,.0000229,0.0354,237.6939,254.3168,12.3747,0,U,39487,999,4670,0,-.279E-5,0
GSAT-14,2014-001A,2026-07-20T22:02:02.137920,1.00271849,.00020171,0.0248,92.9031,111.5746,138.6718,0,U,39498,999,4571,0,-.77E-6,0
THAICOM 6,2014-002A,2026-07-20T20:20:44.531232,1.00273053,.0004527,0.0605,106.4624,20.1045,195.7473,0,U,39500,999,4579,0,-.122E-5,0
TDRS 12,2014-004A,2026-07-20T20:06:38.816064,1.00271332,.00043067,4.0109,19.6343,200.4027,339.3684,0,U,39504,999,4461,0,-.272E-5,0
ABS-2,2014-006A,2026-07-20T22:02:24.601920,1.00272082,.00034827,0.0180,59.3335,44.2555,240.6080,0,U,39508,999,4561,0,-.86E-6,0
ATHENA-FIDUS,2014-006B,2026-07-20T20:09:05.789376,1.00273066,.00015573,0.0366,99.8301,27.5956,151.2452,0,U,39509,999,4542,0,.154E-5,0
TURKSAT 4A,2014-007A,2026-07-20T21:52:55.511040,1.00270295,.00011587,0.0810,279.3670,329.5529,59.9701,0,U,39522,999,4530,0,.146E-5,0
EXPRESS-AT1,2014-010A,2026-07-20T23:59:36.604608,1.00310561,.00045823,0.3429,85.4040,55.0810,224.8687,0,U,39612,999,4515,0,-.16E-6,0
EXPRESS-AT2,2014-010B,2026-07-20T18:31:41.752992,1.00276165,.0000287,0.0157,48.4177,326.2067,257.8451,0,U,39613,999,4483,0,.77E-6,0
AMAZONAS 4A,2014-011A,2026-07-20T21:19:53.857920,1.00272214,.0004829,0.0585,174.0750,324.1107,46.4412,0,U,39616,999,4505,0,-.252E-5,0
ASTRA 5B,2014-011B,2026-07-20T20:04:57.880128,1.00271370,.00021259,0.0651,309.2863,177.6358,136.3639,0,U,39617,999,4500,0,.137E-5,0
IRNSS-1B,2014-017A,2026-07-20T16:48:33.950880,1.00267485,.00216312,28.8630,239.8244,191.1271,174.7813,0,U,39635,999,4513,0,.132E-5,0
LUCH-5V,2014-023A,2026-07-20T23:21:49.645728,1.00271947,.00021994,5.2146,69.3944,79.8155,234.7288,0,U,39727,999,4469,0,-.272E-5,0
KAZSAT-3,2014-023B,2026-07-20T21:57:40.057344,1.00272601,.00000493,0.0105,347.2832,322.0026,17.3122,0,U,39728,999,4279,0,.6E-6,0
EUTELSAT 3B,2014-030A,2026-07-20T19:59:13.430976,1.00268018,.00044257,0.0631,344.2333,140.9273,116.3365,0,U,39773,999,4440,0,.19E-6,0
ASIASAT 8 (AMOS-7),2014-046A,2026-07-20T22:33:23.431392,1.00271786,.00016573,0.0192,75.2274,31.4201,275.7127,0,U,40107,999,10248,0,-.333E-5,0
ASIASAT 6,2014-052A,2026-07-20T12:47:38.751360,1.00271577,.00009081,0.0241,83.8370,60.1824,106.1008,0,U,40141,999,4341,0,-.363E-5,0
OPTUS 10,2014-054A,2026-07-20T20:42:49.913280,1.00270852,.00020008,0.0825,46.1290,71.2678,287.9463,0,U,40146,999,4336,0,-.148E-5,0
MEASAT-3B,2014-054B,2026-07-20T22:07:01.659072,1.00271804,.00026279,0.0239,13.7631,67.7624,280.4379,0,U,40147,999,4324,0,-.242E-5,0
HIMAWARI-8,2014-060A,2026-07-20T14:34:38.604864,1.00270174,.0001276,0.0153,53.1610,108.7255,135.8056,0,U,40267,999,4309,0,-.277E-5,0
IRNSS-1C,2014-061A,2026-07-20T16:56:40.720704,1.00271443,.00219392,6.5999,88.2929,6.0783,181.3257,0,U,40269,999,4302,0,-.167E-5,0
INTELSAT 30 (IS-30),2014-062A,2026-07-20T21:13:54.433056,1.00272115,.00017627,0.0151,52.5627,341.1771,128.3445,0,U,40271,999,713,0,-.151E-5,0
ARSAT 1,2014-062B,2026-07-20T21:20:31.297632,1.00272310,.00020273,0.0514,273.0488,196.7937,77.1375,0,U,40272,999,4296,0,-.26E-5,0
EUTELSAT 53A,2014-064A,2026-07-20T09:57:23.883264,1.00273574,.00017651,0.0147,23.4268,178.1359,298.9992,0,U,40277,999,4190,0,.96E-6,0
GSAT-16,2014-078A,2026-07-20T21:56:40.151904,1.00271855,.00075717,0.0173,65.5057,30.5390,226.8713,0,U,40332,999,4244,0,.85E-6,0
DIRECTV 14,2014-078B,2026-07-20T10:47:38.598720,1.00274313,.0000485,0.0151,57.4012,335.1034,328.3806,0,U,40333,999,4237,0,-.127E-5,0
YAMAL 401,2014-082A,2026-07-20T03:17:31.331616,1.00273803,.00003916,0.0175,145.8925,268.5759,22.7631,0,U,40345,999,4224,0,-.231E-5,0
