FM-6                    
1 39360U 13058A   26201.73774700 -.00000016  00000+0  00000+0 0  9990
2 39360   0.0054  49.4768 0001255 129.9372 268.3240  1.00270123 46401
RADUGA-1M 3             
1 39375U 13062A   26201.94998635  .00000149  00000+0  00000+0 0  9995
2 39375   6.0422  71.9211 0001996 284.5731 319.1842  1.00272319 46440
SES-8                   
1 39460U 13071A   26201.92224032 -.00000269  00000+0  00000+0 0  9995
2 39460   0.0625 261.0904 0002821 215.6961 248.9025  1.00271709 44760
INMARSAT 5-F1           
1 39476U 13073A   26201.48809573  .00000026  00000+0  00000+0 0  9994
2 39476   0.0162  64.7248 0000093 286.7459 185.1431  1.00272746 45915
TKSAT-1 (TUPAC KATARI)  
1 39481U 13075A   26201.88621779 -.00000195  00000+0  00000+0 0  9994
2 39481   0.0118 162.5048 0002691 306.1498  61.8356  1.00272908 45942
EXPRESS-AM5             
1 39487U 13077A   26202.18169648 -.00000279  00000+0  00000+0 0  9991
2 39487   0.0354 237.6939 0000229 254.3168  12.3747  1.00271837 46706
GSAT-14                 
1 39498U 14001A   26201.91808030 -.00000077  00000+0  00000+0 0  9992
2 39498   0.0248  92.9031 0002017 111.5746 138.6718  1.00271849 45711
THAICOM 6               
1 39500U 14002A   26201.84773763 -.00000122  00000+0  00000+0 0  9994
2 39500   0.0605 106.4624 0004527  20.1045 195.7473  1.00273053 45795
TDRS 12                 
1 39504U 14004A   26201.83794926 -.00000272  00000+0  00000+0 0  9999
2 39504   4.0109  19.6343 0004306 200.4027 339.3684  1.00271332 44611
ABS-2                   
1 39508U 14006A   26201.91834030 -.00000086  00000+0  00000+0 0  9998
2 39508   0.0180  59.3335 0003482  44.2555 240.6080  1.00272082 45614
ATHENA-FIDUS            
1 39509U 14006B   26201.83965034  .00000154  00000+0  00000+0 0  9994
2 39509   0.0366  99.8301 0001557  27.5956 151.2452  1.00273066 45425
TURKSAT 4A              
1 39522U 14007A   26201.91175360  .00000146  00000+0  00000+0 0  9995
2 39522   0.0810 279.3670 0001158 329.5529  59.9701  1.00270295 45305
EXPRESS-AT1             
1 39612U 14010A   26201.99972922 -.00000016  00000+0  00000+0 0  9993
2 39612   0.3429  85.4040 0004582  55.0810 224.8687  1.00310561 45159
EXPRESS-AT2             
1 39613U 14010B   26201.77201103  .00000077  00000+0  00000+0 0  9992
2 39613   0.0157  48.4177 0000287 326.2067 257.8451  1.00276165 44830
AMAZONAS 4A             
1 39616U 14011A   26201.88881780 -.00000252  00000+0  00000+0 0  9999
2 39616   0.0585 174.0750 0004829 324.1107  46.4412  1.00272214 45054
ASTRA 5B                
1 39617U 14011B   26201.83678102  .00000137  00000+0  00000+0 0  9998
2 39617   0.0651 309.2863 0002125 177.6358 136.3639  1.00271370 45009
IRNSS-1B                
1 39635U 14017A   26201.70039295  .00000132  00000+0  00000+0 0  9999
2 39635  28.8630 239.8244 0021631 191.1271 174.7813  1.00267485 45139
LUCH-5V                 
1 39727U 14023A   26201.97349127 -.00000272  00000+0  00000+0 0  9991
2 39727   5.2146  69.3944 0002199  79.8155 234.7288  1.00271947 44697
KAZSAT-3                
1 39728U 14023B   26201.91504696  .00000060  00000+0  00000+0 0  9994
2 39728   0.0105 347.2832 0000049 322.0026  17.3122  1.00272601 42791
EUTELSAT 3B             
1 39773U 14030A   26201.83279434  .00000019  00000+0  00000+0 0  9996
2 39773   0.0631 344.2333 0004425 140.9273 116.3365  1.00268018 44407
ASIASAT 8 (AMOS-7)      
1 40107U 14046A   26201.93985453 -.00000333  00000+0  00000+0 0  9992
2 40107   0.0192  75.2274 0001657  31.4201 275.7127  1.00271786102481
ASIASAT 6               
1 40141U 14052A   26201.53308740 -.00000363  00000+0  00000+0 0  9994
2 40141   0.0241  83.8370 0000908  60.1824 106.1008  1.00271577 43414
OPTUS 10                
1 40146U 14054A   26201.86307770 -.00000148  00000+0  00000+0 0  9990
2 40146   0.0825  46.1290 0002000  71.2678 287.9463  1.00270852 43367
MEASAT-3B               
1 40147U 14054B   26201.92154698 -.00000242  00000+0  00000+0 0  9992
2 40147   0.0239  13.7631 0002627  67.7624 280.4379  1.00271804 43241
HIMAWARI-8              
1 40267U 14060A   26201.60739126 -.00000277  00000+0  00000+0 0  9990
2 40267   0.0153  53.1610 0001276 108.7255 135.8056  1.00270174 43096
IRNSS-1C                
1 40269U 14061A   26201.70602686 -.00000167  00000+0  00000+0 0  9992
2 40269   6.5999  88.2929 0021939   6.0783 181.3257  1.00271443 43025
INTELSAT 30 (IS-30)     
1 40271U 14062A   26201.88465779 -.00000151  00000+0  00000+0 0  9998
2 40271   0.0151  52.5627 0001762 341.1771 128.3445  1.00272115  7137
ARSAT 1                 
1 40272U 14062B   26201.88925113 -.00000260  00000+0  00000+0 0  9993
2 40272   0.0514 273.0488 0002027 196.7937  77.1375  1.00272310 42969
EUTELSAT 53A            
1 40277U 14064A   26201.41485976  .00000096  00000+0  00000+0 0  9993
2 40277   0.0147  23.4268 0001765 178.1359 298.9992  1.00273574 41903
GSAT-16                 
1 40332U 14078A   26201.91435361  .00000085  00000+0  00000+0 0  9996
2 40332   0.0173  65.5057 0007571  30.5390 226.8713  1.00271855 42445
DIRECTV 14              
1 40333U 14078B   26201.44975230 -.00000127  00000+0  00000+0 0  9997
2 40333   0.0151  57.4012 0000485 335.1034 328.3806  1.00274313 42374
YAMAL 401               
1 40345U 14082A   26201.13716819 -.00000231  00000+0  00000+0 0  9993
2 40345   0.0175 145.8925 0000391 268.5759  22.7631  1.00273803 42247
